*******************************************************************************
JPL/HORIZONS                    (2003 UZ413)               2013-Dec-01 19:32:32
Rec #:523715 (+COV)   Soln.date: 2013-Aug-14_21:57:47     # obs: 36 (1954-2010)
 
FK5/J2000.0 helio. ecliptic osc. elements (au, days, deg., period=Julian yrs): 
 
  EPOCH=  2452602.5 ! 2002-Nov-24.00 (CT)          Residual RMS= .34108        
   EC= .2200461260386893   QR= 30.63028483697585   TP= 2430364.5976404543      
   OM= 136.1815825648023   W=  145.6031034453882   IN= 12.04959607888515       
   A= 39.27191832692308    MA= 89.05836526986873   ADIST= 47.91355181687031    
   PER= 246.11121          N= .004004801           ANGMOM= .10515867           
   DAN= 45.66102           DDN= 31.62772           L= 282.3772819              
   B= 6.7727798            MOID= 29.62210083       TP= 1942-Jan-05.0976404543  
 
Asteroid physical parameters (km, seconds, rotational period in hours):        
   GM= n.a.                RAD= n.a.               ROTPER= 4.14                
   H= 4.2                  G= .150                 B-V= n.a.                   
                           ALBEDO= n.a.            STYP= n.a.                  
 
ASTEROID comments: 
1: soln ref.= JPL#1, OCC=2
2: source=ORB
*******************************************************************************
 

 

*******************************************************************************
Ephemeris / WWW_USER Sun Dec  1 19:32:32 2013 Pasadena, USA      / Horizons    
*******************************************************************************
Target body name: (2003 UZ413)                    {source: JPL#1}
Center body name: Earth (399)                     {source: DE-0431LE-0431}
Center-site name: San Pedro Martir
*******************************************************************************
Start time      : A.D. 2013-Jan-01 00:00:00.0000 UT      
Stop  time      : A.D. 2014-Dec-31 00:00:00.0000 UT      
Step-size       : 1440 minutes
*******************************************************************************
Target pole/equ : No model available
Target radii    : (unavailable)                                                
Center geodetic : 244.536700,31.0434585,2.8281109 {E-lon(deg),Lat(deg),Alt(km)}
Center cylindric: 244.536700,5471.93108,3271.4810 {E-lon(deg),Dxy(km),Dz(km)}
Center pole/equ : High-precision EOP model        {East-longitude +}
Center radii    : 6378.1 x 6378.1 x 6356.8 km     {Equator, meridian, pole}    
Target primary  : Sun
Vis. interferer : MOON (R_eq= 1737.400) km        {source: DE-0431LE-0431}
Rel. light bend : Sun, EARTH                      {source: DE-0431LE-0431}
Rel. lght bnd GM: 1.3271E+11, 3.9860E+05 km^3/s^2                              
Small-body perts: Yes                             {source: SB431-BIG16}
Atmos refraction: NO (AIRLESS)
RA format       : DEG
Time format     : BOTH
EOP file        : eop.131128.p140219                                           
EOP coverage    : DATA-BASED 1962-JAN-20 TO 2013-NOV-28. PREDICTS-> 2014-FEB-18
Units conversion: 1 au= 149597870.700 km, c= 299792.458 km/s, 1 day= 86400.0 s 
Table cut-offs 1: Elevation (-90.0deg=NO ),Airmass (>38.000=NO), Daylight (NO )
Table cut-offs 2: Solar Elongation (  0.0,180.0=NO ),Local Hour Angle( 0.0=NO )
*******************************************************************************
Initial FK5/J2000.0 heliocentric ecliptic osculating elements (au, days, deg.):
  EPOCH=  2452602.5 ! 2002-Nov-24.00 (CT)          Residual RMS= .34108        
   EC= .2200461260386893   QR= 30.63028483697585   TP= 2430364.5976404543      
   OM= 136.1815825648023   W=  145.6031034453882   IN= 12.04959607888515       
Asteroid physical parameters (km, seconds, rotational period in hours):        
   GM= n.a.                RAD= n.a.               ROTPER= 4.14                
   H= 4.2                  G= .150                 B-V= n.a.                   
                           ALBEDO= n.a.            STYP= n.a.                  
************************************************************************************************************
 Date__(UT)__HR:MN Date_________JDUT     R.A._(J2000.0)_DEC. dRA*cosD d(DEC)/dt            delta      deldot
************************************************************************************************************
$$SOE
 2014-May-26 00:00 2456803.500000000 *    50.77756   6.41404 3.587262  0.787298 44.1954432876966  -5.6128356
 2014-May-27 00:00 2456804.500000000 *m   50.80165   6.41930 3.577591  0.772835 44.1918457289126  -6.0727710
 2014-May-28 00:00 2456805.500000000 *m   50.82567   6.42446 3.567027  0.758194 44.1879823193681  -6.5306656
 2014-May-29 00:00 2456806.500000000 *m   50.84961   6.42953 3.555577  0.743383 44.1838543740961  -6.9862678
 2014-May-30 00:00 2456807.500000000 *m   50.87347   6.43449 3.543249  0.728409 44.1794633483880  -7.4393454
 2014-May-31 00:00 2456808.500000000 *m   50.89724   6.43936 3.530055  0.713279 44.1748108251161  -7.8896897
 2014-Jun-01 00:00 2456809.500000000 *m   50.92091   6.44412 3.516009  0.698000 44.1698985007613  -8.3371164
 2014-Jun-02 00:00 2456810.500000000 *m   50.94448   6.44879 3.501124  0.682578 44.1647281719042  -8.7814633
 2014-Jun-03 00:00 2456811.500000000 *m   50.96794   6.45334 3.485414  0.667020 44.1593017234289  -9.2225867
 2014-Jun-04 00:00 2456812.500000000 *m   50.99129   6.45780 3.468893  0.651331 44.1536211189820  -9.6603573
 2014-Jun-05 00:00 2456813.500000000 *m   51.01453   6.46215 3.451575  0.635518 44.1476883935210 -10.0946575
 2014-Jun-06 00:00 2456814.500000000 *m   51.03763   6.46639 3.433475  0.619586 44.1415056471800 -10.5253796
 2014-Jun-07 00:00 2456815.500000000 *m   51.06061   6.47053 3.414608  0.603541 44.1350750392174 -10.9524272
 2014-Jun-08 00:00 2456816.500000000 *m   51.08346   6.47456 3.394991  0.587387 44.1283987804873 -11.3757191
 2014-Jun-09 00:00 2456817.500000000 *m   51.10617   6.47848 3.374640  0.571130 44.1214791227542 -11.7951964
 2014-Jun-10 00:00 2456818.500000000 *m   51.12873   6.48229 3.353573  0.554775 44.1143183434154 -12.2108310
 2014-Jun-11 00:00 2456819.500000000 *    51.15114   6.48600 3.331808  0.538325 44.1069187251108 -12.6226340
 2014-Jun-12 00:00 2456820.500000000 *    51.17341   6.48959 3.309359  0.521783 44.0992825315571 -13.0306597
 2014-Jun-13 00:00 2456821.500000000 *    51.19551   6.49307 3.286236  0.505151 44.0914119836385 -13.4350003
 2014-Jun-14 00:00 2456822.500000000 *    51.21745   6.49644 3.262442  0.488428 44.0833092423490 -13.8357668
 2014-Jun-15 00:00 2456823.500000000 *    51.23923   6.49970 3.237969  0.471611 44.0749764057906 -14.2330601
 2014-Jun-16 00:00 2456824.500000000 *    51.26083   6.50285 3.212806  0.454700 44.0664155245598 -14.6269386
 2014-Jun-17 00:00 2456825.500000000 *    51.28226   6.50588 3.186933  0.437691 44.0576286340092 -15.0173937
 2014-Jun-18 00:00 2456826.500000000 *    51.30351   6.50880 3.160331  0.420584 44.0486177961010 -15.4043415
 2014-Jun-19 00:00 2456827.500000000 *    51.32457   6.51160 3.132983  0.403380 44.0393851412227 -15.7876308
 2014-Jun-20 00:00 2456828.500000000 *    51.34544   6.51429 3.104875  0.386082 44.0299329022896 -16.1670606
 2014-Jun-21 00:00 2456829.500000000 *    51.36612   6.51686 3.075998  0.368694 44.0202634376997 -16.5424001
 2014-Jun-22 00:00 2456830.500000000 *    51.38659   6.51932 3.046349  0.351220 44.0103792435314 -16.9134052
 2014-Jun-23 00:00 2456831.500000000 *    51.40686   6.52166 3.015929  0.333667 44.0002829573505 -17.2798310
 2014-Jun-24 00:00 2456832.500000000 *    51.42691   6.52388 2.984744  0.316042 43.9899773562506 -17.6414396
 2014-Jun-25 00:00 2456833.500000000 *m   51.44675   6.52598 2.952803  0.298353 43.9794653511151 -17.9980055
 2014-Jun-26 00:00 2456834.500000000 *m   51.46637   6.52797 2.920117  0.280606 43.9687499783304 -18.3493193
 2014-Jun-27 00:00 2456835.500000000 *m   51.48576   6.52984 2.886700  0.262809 43.9578343896863 -18.6951903
 2014-Jun-28 00:00 2456836.500000000 *m   51.50492   6.53158 2.852568  0.244970 43.9467218410458 -19.0354481
 2014-Jun-29 00:00 2456837.500000000 *m   51.52385   6.53321 2.817738  0.227096 43.9354156804214 -19.3699429
 2014-Jun-30 00:00 2456838.500000000 *m   51.54253   6.53472 2.782228  0.209193 43.9239193361735 -19.6985449
 2014-Jul-01 00:00 2456839.500000000 *m   51.56097   6.53611 2.746055  0.191268 43.9122363060029 -20.0211424
 2014-Jul-02 00:00 2456840.500000000 *m   51.57916   6.53737 2.709240  0.173328 43.9003701471942 -20.3376392
 2014-Jul-03 00:00 2456841.500000000 *m   51.59709   6.53852 2.671798  0.155378 43.8883244681941 -20.6479527
 2014-Jul-04 00:00 2456842.500000000 *m   51.61477   6.53955 2.633751  0.137424 43.8761029211648 -20.9520129
 2014-Jul-05 00:00 2456843.500000000 *m   51.63219   6.54046 2.595116  0.119473 43.8637091947000 -21.2497626
 2014-Jul-06 00:00 2456844.500000000 *m   51.64934   6.54124 2.555913  0.101529 43.8511470055051 -21.5411609
 2014-Jul-07 00:00 2456845.500000000 *m   51.66622   6.54191 2.516163  0.083598 43.8384200875977 -21.8261884
 2014-Jul-08 00:00 2456846.500000000 *m   51.68283   6.54246 2.475887  0.065685 43.8255321776505 -22.1048552
 2014-Jul-09 00:00 2456847.500000000 *m   51.69916   6.54288 2.435103  0.047793 43.8124869957463 -22.3772082
 2014-Jul-10 00:00 2456848.500000000 *    51.71521   6.54319 2.393830  0.029926 43.7992882224112 -22.6433360
 2014-Jul-11 00:00 2456849.500000000 *    51.73098   6.54338 2.352079  0.012084 43.7859394754668 -22.9033638
 2014-Jul-12 00:00 2456850.500000000 *    51.74646   6.54345 2.309854  -0.00573 43.7724442933453 -23.1574351
 2014-Jul-13 00:00 2456851.500000000 *    51.76166   6.54340 2.267151  -0.02353 43.7588061331619 -23.4056800
 2014-Jul-14 00:00 2456852.500000000 *    51.77656   6.54323 2.223958  -0.04130 43.7450283896050 -23.6481767
 2014-Jul-15 00:00 2456853.500000000 *    51.79116   6.54294 2.180255  -0.05906 43.7311144339499 -23.8849227
